NORAD_CAT_ID,OBJECT_NAME,OBJECT_TYPE,EPOCH,MEAN_MOTION,ECCENTRICITY,INCLINATION,RA_OF_ASC_NODE,ARG_OF_PERICENTER,MEAN_ANOMALY,BSTAR,MEAN_MOTION_DOT,MEAN_MOTION_DDOT,TLE_LINE0,TLE_LINE1,TLE_LINE2,SEMIMAJOR_AXIS,PERIOD,APOGEE,PERIGEE,DECAYED
53979.0,STARLINK-5123,PAYLOAD,2022-10-19 20:00:01,15.73213369,0.0002375,53.2184,22.9647,18.3291,160.3688,0.00027126,0.00037644,0.0,0 STARLINK-5123,1 53979U 22125R   22292.83334491  .00037644  00000-0  27126-3 0  9992,2 53979  53.2184  22.9647 0002375  18.3291 160.3688 15.73213369  2575,6727.857,91.532,351.32,348.124,0.0
53979.0,STARLINK-5123,PAYLOAD,2022-10-19 22:00:00,15.73239634,0.0002305,53.2186,22.5516,17.8888,273.04,-1.8249e-05,-3.187e-05,0.0,0 STARLINK-5123,1 53979U 22125R   22292.91667824 -.00003187  00000-0 -18249-4 0  9994,2 53979  53.2186  22.5516 0002305  17.8888 273.0400 15.73239634  1304,6727.781999999997,91.531,351.1980000000001,348.096,0.0
53979.0,STARLINK-5123,PAYLOAD,2022-10-20 12:00:00,15.73237601,0.0002399,53.2187,19.665,13.6024,343.0332,-0.00040449,-0.00057105,0.0,0 STARLINK-5123,1 53979U 22125R   22293.50001157 -.00057105  00000-0 -40449-3 0  9996,2 53979  53.2187  19.6650 0002399  13.6024 343.0332 15.73237601  2675,6727.788000000001,91.531,351.267,348.039,0.0
53979.0,STARLINK-5123,PAYLOAD,2022-10-20 14:00:01,15.73182371,0.0002457,53.2187,19.2537,12.4058,96.461,0.00013438,0.00018266,0.0,0 STARLINK-5123,1 53979U 22125R   22293.58334491  .00018266  00000-0  13438-3 0  9995,2 53979  53.2187  19.2537 0002457  12.4058  96.4610 15.73182371  1304,6727.945,91.534,351.463,348.157,0.0
53979.0,STARLINK-5123,PAYLOAD,2022-10-20 22:00:00,15.73231774,0.0002387,53.2181,17.6013,12.6828,185.0912,-0.00015262,-0.00022017,0.0,0 STARLINK-5123,1 53979U 22125R   22293.91667824 -.00022017  00000-0 -15262-3 0  9999,2 53979  53.2181  17.6013 0002387  12.6828 185.0912 15.73231774  1300,6727.805,91.531,351.276,348.064,0.0
53979.0,STARLINK-5123,PAYLOAD,2022-10-21 04:00:00,15.73223806,0.0002293,53.2184,16.3648,16.8734,157.6342,-8.1077e-05,-0.00011997,0.0,0 STARLINK-5123,1 53979U 22125R   22294.16667824 -.00011997  00000-0 -81077-4 0  9990,2 53979  53.2184  16.3648 0002293  16.8734 157.6342 15.73223806  2783,6727.8269999999975,91.532,351.235,348.15,0.0
53979.0,STARLINK-5123,PAYLOAD,2022-10-21 14:00:01,15.73243965,0.0002607,53.2182,14.305,17.2,358.5032,-0.00017062,-0.00024547,0.0,0 STARLINK-5123,1 53979U 22125R   22294.58334491 -.00024547  00000-0 -17062-3 0  9994,2 53979  53.2182  14.3050 0002607  17.2000 358.5032 15.73243965  1309,6727.77,91.531,351.389,347.881,0.0
53979.0,STARLINK-5123,PAYLOAD,2022-10-21 22:00:00,15.73244534,0.0002599,53.219,12.6547,17.2307,87.4154,-0.00059979,-0.00084137,0.0,0 STARLINK-5123,1 53979U 22125R   22294.91667824 -.00084137  00000-0 -59979-3 0  9994,2 53979  53.2190  12.6547 0002599  17.2307  87.4154 15.73244534  1306,6727.768,91.531,351.38199999999995,347.885,0.0
53979.0,STARLINK-5123,PAYLOAD,2022-10-22 12:00:00,15.73206879,0.0002859,53.2189,9.7692,22.2058,148.0742,0.00023918,0.00033093,0.0,0 STARLINK-5123,1 53979U 22125R   22295.50001157  .00033093  00000-0  23918-3 0  9998,2 53979  53.2189   9.7692 0002859  22.2058 148.0742 15.73206879  2993,6727.876,91.533,351.664,347.81699999999995,0.0
53979.0,STARLINK-5123,PAYLOAD,2022-10-22 14:00:01,15.73219377,0.0002892,53.219,9.3574,21.2228,261.2906,0.00010707,0.00014445,0.0,0 STARLINK-5123,1 53979U 22125R   22295.58334491  .00014445  00000-0  10707-3 0  9998,2 53979  53.2190   9.3574 0002892  21.2228 261.2906 15.73219377  1306,6727.84,91.532,351.651,347.759,0.0
53979.0,STARLINK-5123,PAYLOAD,2022-10-22 22:00:00,15.73242093,0.0002667,53.2187,7.7064,18.1831,353.3021,-0.00029017,-0.00041228,0.0,0 STARLINK-5123,1 53979U 22125R   22295.91667824 -.00041228  00000-0 -29017-3 0  9999,2 53979  53.2187   7.7064 0002667  18.1831 353.3021 15.73242093  1305,6727.775,91.531,351.434,347.846,0.0
53979.0,STARLINK-5123,PAYLOAD,2022-10-23 12:00:00,15.732351800000002,0.0002801,53.2187,4.8213,14.8758,62.3024,0.00033856,0.00047239,0.0,0 STARLINK-5123,1 53979U 22125R   22296.50001157  .00047239  00000-0  33856-3 0  9998,2 53979  53.2187   4.8213 0002801  14.8758  62.3024 15.73235180  3154,6727.795,91.531,351.5440000000001,347.775,0.0
53979.0,STARLINK-5123,PAYLOAD,2022-10-23 14:00:01,15.73240311,0.0002845,53.2189,4.4092,14.1504,175.2732,0.00036074,0.00050405,0.0,0 STARLINK-5123,1 53979U 22125R   22296.58334491  .00050405  00000-0  36074-3 0  9990,2 53979  53.2189   4.4092 0002845  14.1504 175.2732 15.73240311  1304,6727.78,91.531,351.559,347.731,0.0
53979.0,STARLINK-5123,PAYLOAD,2022-10-23 20:00:01,15.73310722,0.0002808,53.2188,3.1710000000000003,12.8172,153.3391,-0.0010602,-0.00147571,0.0,0 STARLINK-5123,1 53979U 22125R   22296.83334491 -.00147571  00000-0 -10602-2 0  9999,2 53979  53.2188   3.1710 0002808  12.8172 153.3391 15.73310722  3204,6727.58,91.527,351.334,347.555,0.0
53979.0,STARLINK-5123,PAYLOAD,2022-10-23 22:00:00,15.73283579,0.0002725,53.2191,2.758,12.8463,265.5709,-0.00095851,-0.00133538,0.0,0 STARLINK-5123,1 53979U 22125R   22296.91667824 -.00133538  00000-0 -95851-3 0  9995,2 53979  53.2191   2.7580 0002725  12.8463 265.5709 15.73283579  1306,6727.656999999997,91.528,351.355,347.689,0.0
53979.0,STARLINK-5123,PAYLOAD,2022-10-24 12:00:00,15.73035441,0.0002918999999999,53.2189,359.8728,10.1125,333.9582,0.00059732,0.00083465,0.0,0 STARLINK-5123,1 53979U 22125R   22297.50001157  .00083465  00000-0  59732-3 0  9991,2 53979  53.2189 359.8728 0002919  10.1125 333.9582 15.73035441  3308,6728.364000000001,91.543,352.1930000000001,348.265,0.0
53979.0,STARLINK-5123,PAYLOAD,2022-10-24 14:00:01,15.73009476,0.0002966,53.2189,359.4609,9.0267,87.2409,0.0012424,0.00176019,0.0,0 STARLINK-5123,1 53979U 22125R   22297.58334491  .00176019  00000-0  12424-2 0  9993,2 53979  53.2189 359.4609 0002966   9.0267  87.2409 15.73009476  1302,6728.438,91.544,352.2990000000001,348.30800000000005,0.0
53979.0,STARLINK-5123,PAYLOAD,2022-10-24 22:00:00,15.73130831,0.0002839,53.2185,357.8101,10.571,174.4686,0.00028722,0.00039766,0.0,0 STARLINK-5123,1 53979U 22125R   22297.91667824  .00039766  00000-0  28722-3 0  9995,2 53979  53.2185 357.8101 0002839  10.5710 174.4686 15.73130831  1302,6728.092,91.537,351.867,348.047,0.0
53979.0,STARLINK-5123,PAYLOAD,2022-10-25 14:00:01,15.7318925,0.0003096,53.2185,354.5134,11.4665,351.3461,0.00040278,0.0005627,0.0,0 STARLINK-5123,1 53979U 22125R   22298.58334491  .00056270  00000-0  40278-3 0  9999,2 53979  53.2185 354.5134 0003096  11.4665 351.3461 15.73189250  1303,6727.926,91.534,351.874,347.708,0.0
53979.0,STARLINK-5123,PAYLOAD,2022-10-25 20:00:01,15.73244479,0.0002965,53.2185,353.2749,10.1521,329.3594,-0.00053717,-0.00075501,0.0,0 STARLINK-5123,1 53979U 22125R   22298.83334491 -.00075501  00000-0 -53717-3 0  9999,2 53979  53.2185 353.2749 0002965  10.1521 329.3594 15.73244479  3514,6727.768,91.531,351.62800000000016,347.639,0.0
53979.0,STARLINK-5123,PAYLOAD,2022-10-25 22:00:01,15.73199041,0.0002896,53.2187,352.8619,9.3541,82.4754,5.2847e-05,6.801e-05,0.0,0 STARLINK-5123,1 53979U 22125R   22298.91668981  .00006801  00000-0  52847-4 0  9991,2 53979  53.2187 352.8619 0002896   9.3541  82.4754 15.73199041  1306,6727.898,91.533,351.711,347.815,0.0
53979.0,STARLINK-5123,PAYLOAD,2022-10-26 04:00:00,15.73201369,0.0002903,53.2188,351.6244,11.7001,56.7564,0.00044934,0.00062927,0.0,0 STARLINK-5123,1 53979U 22125R   22299.16667824  .00062927  00000-0  44934-3 0  9992,2 53979  53.2188 351.6244 0002903  11.7001  56.7564 15.73201369  3576,6727.891,91.533,351.709,347.80300000000005,0.0
53979.0,STARLINK-5123,PAYLOAD,2022-10-26 12:00:00,15.73249637,0.0003206,53.2185,349.9769,10.8686,146.534,-0.00015315,-0.00022112,0.0,0 STARLINK-5123,1 53979U 22125R   22299.50001157 -.00022112  00000-0 -15315-3 0  9996,2 53979  53.2185 349.9769 0003206  10.8686 146.5340 15.73249637  3627,6727.754,91.53,351.776,347.462,0.0
53979.0,STARLINK-5123,PAYLOAD,2022-10-26 14:00:01,15.73243978,0.000324,53.2184,349.5648,9.8337,259.8159,-0.00012245,-0.0001781,0.0,0 STARLINK-5123,1 53979U 22125R   22299.58334491 -.00017810  00000-0 -12245-3 0  9992,2 53979  53.2184 349.5648 0003240   9.8337 259.8159 15.73243978  1308,6727.77,91.531,351.815,347.455,0.0
53979.0,STARLINK-5123,PAYLOAD,2022-10-26 22:00:00,15.73231115,0.0003018999999999,53.2182,347.9132,10.1128,348.5129,-0.00017371,-0.00024968,0.0,0 STARLINK-5123,1 53979U 22125R   22299.91667824 -.00024968  00000-0 -17371-3 0  9995,2 53979  53.2182 347.9132 0003019  10.1128 348.5129 15.73231115  1306,6727.806,91.531,351.70300000000015,347.64,0.0
53979.0,STARLINK-5123,PAYLOAD,2022-10-27 12:00:02,15.73220436,0.0003312,53.2181,345.0284,14.5326,49.8316,0.00027861,0.00038702,0.0,0 STARLINK-5123,1 53979U 22125R   22300.50002315  .00038702  00000-0  27861-3 0  9995,2 53979  53.2181 345.0284 0003312  14.5326  49.8316 15.73220436  3783,6727.837,91.532,351.93,347.474,0.0
53979.0,STARLINK-5123,PAYLOAD,2022-10-27 14:00:01,15.73163712,0.0003358,53.2179,344.6161,17.3506,159.2381,0.00078324,0.00110609,0.0,0 STARLINK-5123,1 53979U 22125R   22300.58335648  .00110609  00000-0  78324-3 0  9998,2 53979  53.2179 344.6161 0003358  17.3506 159.2381 15.73163712  1307,6727.999,91.535,352.12300000000016,347.60400000000016,0.0
53979.0,STARLINK-5123,PAYLOAD,2022-10-27 18:00:00,15.73231511,0.0003315,53.2179,343.7904,17.6683,23.3034,8.1763e-05,0.00010885,0.0,0 STARLINK-5123,1 53979U 22125R   22300.75001157  .00010885  00000-0  81763-4 0  9999,2 53979  53.2179 343.7904 0003315  17.6683  23.3034 15.73231511  3822,6727.805,91.531,351.901,347.44,0.0
53979.0,STARLINK-5123,PAYLOAD,2022-10-27 22:00:00,15.73251291,0.0003143999999999,53.2184,342.9646,17.7037,247.7528,-0.0001498,-0.00021645,0.0,0 STARLINK-5123,1 53979U 22125R   22300.91667824 -.00021645  00000-0 -14980-3 0  9990,2 53979  53.2184 342.9646 0003144  17.7037 247.7528 15.73251291  1304,6727.749,91.53,351.72900000000016,347.499,0.0
